NORAD_CAT_ID,OBJECT_NAME,OBJECT_TYPE,EPOCH,MEAN_MOTION,ECCENTRICITY,INCLINATION,RA_OF_ASC_NODE,ARG_OF_PERICENTER,MEAN_ANOMALY,BSTAR,MEAN_MOTION_DOT,MEAN_MOTION_DDOT,TLE_LINE0,TLE_LINE1,TLE_LINE2,SEMIMAJOR_AXIS,PERIOD,APOGEE,PERIGEE,DECAYED
53983.0,STARLINK-5103,PAYLOAD,2023-10-15 22:03:44,15.08839189,0.0001546,53.2164,175.4421,94.3855,265.7314,5.3541e-05,5.64e-06,0.0,0 STARLINK-5103,1 53983U 22125V   23288.91926500  .00000564  00000-0  53541-4 0  9992,2 53983  53.2164 175.4421 0001546  94.3855 265.7314 15.08839189 57399,6917.883,95.438,540.817,538.678,0.0
53983.0,STARLINK-5103,PAYLOAD,2023-10-16 02:49:53,15.0884816,0.0001368,53.2156,174.5508,81.3837,278.731,8.889e-05,1.127e-05,0.0,0 STARLINK-5103,1 53983U 22125V   23289.11797918  .00001127  00000-0  88890-4 0  9995,2 53983  53.2156 174.5508 0001368  81.3837 278.7310 15.08848160 57494,6917.855,95.437,540.667,538.774,0.0
53983.0,STARLINK-5103,PAYLOAD,2023-10-16 09:11:26,15.08842411,0.0001339,53.2154,173.361,78.9429,281.1714,0.00020995,3.055e-05,0.0,0 STARLINK-5103,1 53983U 22125V   23289.38294366  .00003055  00000-0  20995-3 0  9996,2 53983  53.2154 173.3610 0001339  78.9429 281.1714 15.08842411 57534,6917.873,95.437,540.664,538.812,0.0
53983.0,STARLINK-5103,PAYLOAD,2023-10-17 09:02:13,15.08838266,0.0001374,53.2152,168.901,79.47,280.6447,0.00010568,1.394e-05,0.0,0 STARLINK-5103,1 53983U 22125V   23290.37654798  .00001394  00000-0  10568-3 0  9995,2 53983  53.2152 168.9010 0001374  79.4700 280.6447 15.08838266 57689,6917.886,95.438,540.701,538.8,0.0
53983.0,STARLINK-5103,PAYLOAD,2023-10-18 00:56:03,15.08866687,0.0001321,53.2163,165.9303,86.2824,273.8319,0.00032897,4.955e-05,0.0,0 STARLINK-5103,1 53983U 22125V   23291.03892908  .00004955  00000-0  32897-3 0  9991,2 53983  53.2163 165.9303 0001321  86.2824 273.8319 15.08866687 57789,6917.799,95.436,540.578,538.75,0.0
53983.0,STARLINK-5103,PAYLOAD,2023-10-18 08:52:59,15.08855217,0.0002464,53.2155,164.4403,71.4198,288.7062,0.00017173,2.447e-05,0.0,0 STARLINK-5103,1 53983U 22125V   23291.37013594  .00002447  00000-0  17173-3 0  9998,2 53983  53.2155 164.4403 0002464  71.4198 288.7062 15.08855217 57837,6917.834,95.437,541.403,537.994,0.0
53983.0,STARLINK-5103,PAYLOAD,2023-10-18 18:25:19,15.08824802,6.05e-05,53.2162,162.6564,53.5393,306.5654,-0.00018027,-3.154e-05,0.0,0 STARLINK-5103,1 53983U 22125V   23291.76758474 -.00003154  00000-0 -18027-3 0  9991,2 53983  53.2162 162.6564 0000605  53.5393 306.5654 15.08824802 57894,6917.927,95.439,540.21,539.373,0.0
53983.0,STARLINK-5103,PAYLOAD,2023-10-18 21:36:05,15.08825244,9.57e-05,53.2172,162.0618,64.8559,295.2532,-0.00016005,-2.833e-05,0.0,0 STARLINK-5103,1 53983U 22125V   23291.90006759 -.00002833  00000-0 -16005-3 0  9996,2 53983  53.2172 162.0618 0000957  64.8559 295.2532 15.08825244 57843,6917.925,95.438,540.453,539.128,0.0
53983.0,STARLINK-5103,PAYLOAD,2023-10-19 00:46:51,15.08839995,0.0001289,53.2154,161.4674,68.4657,291.6473,-0.00014474,-2.591e-05,0.0,0 STARLINK-5103,1 53983U 22125V   23292.03254225 -.00002591  00000-0 -14474-3 0  9993,2 53983  53.2154 161.4674 0001289  68.4657 291.6473 15.08839995 57938,6917.88,95.438,540.637,538.854,0.0
53983.0,STARLINK-5103,PAYLOAD,2023-10-19 18:16:05,15.08853743,0.0001258,53.2157,158.1961,66.9921,293.1204,0.00015728,2.217e-05,0.0,0 STARLINK-5103,1 53983U 22125V   23292.76117525  .00002217  00000-0  15728-3 0  9990,2 53983  53.2157 158.1961 0001258  66.9921 293.1204 15.08853743 58045,6917.838,95.437,540.574,538.833,0.0
53983.0,STARLINK-5103,PAYLOAD,2023-10-19 21:26:51,15.08858523,0.000119,53.2157,157.6006,65.7637,294.348,0.00043441,6.636e-05,0.0,0 STARLINK-5103,1 53983U 22125V   23292.89365394  .00006636  00000-0  43441-3 0  9995,2 53983  53.2157 157.6006 0001190  65.7637 294.3480 15.08858523 57998,6917.824,95.436,540.512,538.866,0.0
53983.0,STARLINK-5103,PAYLOAD,2023-10-20 18:06:53,15.08838109,6.01e-05,53.2176,153.7348,43.2111,316.8928,0.00032045,4.816e-05,0.0,0 STARLINK-5103,1 53983U 22125V   23293.75478418  .00004816  00000-0  32045-3 0  9999,2 53983  53.2176 153.7348 0000601  43.2111 316.8928 15.08838109 58197,6917.886,95.438,540.167,539.335,0.0
53983.0,STARLINK-5103,PAYLOAD,2023-10-20 21:17:40,15.08835404,0.0001379,53.2165,153.1394,63.4756,296.6378,0.00014695,2.051e-05,0.0,0 STARLINK-5103,1 53983U 22125V   23293.88726854  .00002051  00000-0  14695-3 0  9993,2 53983  53.2165 153.1394 0001379  63.4756 296.6378 15.08835404 58146,6917.894,95.438,540.713,538.805,0.0
53983.0,STARLINK-5103,PAYLOAD,2023-10-21 00:28:26,15.08833514,0.0001504,53.216,152.5467,56.656,303.4576,0.00010434,1.373e-05,0.0,0 STARLINK-5103,1 53983U 22125V   23294.01975028  .00001373  00000-0  10434-3 0  9991,2 53983  53.2160 152.5467 0001504  56.6560 303.4576 15.08833514 58239,6917.9,95.438,540.806,538.725,0.0
53983.0,STARLINK-5103,PAYLOAD,2023-10-21 19:33:03,15.08846994,0.0001565,53.2157,148.9812,43.2476,316.8639,0.00038042,5.773e-05,0.0,0 STARLINK-5103,1 53983U 22125V   23294.81462544  .00005773  00000-0  38042-3 0  9996,2 53983  53.2157 148.9812 0001565  43.2476 316.8639 15.08846994 58350,6917.859,95.437,540.807,538.641,0.0
53983.0,STARLINK-5103,PAYLOAD,2023-10-21 21:08:26,15.08856282,0.0001275,53.2153,148.6806,72.8469,287.2663,0.00048078,7.375e-05,0.0,0 STARLINK-5103,1 53983U 22125V   23294.88086250  .00007375  00000-0  48078-3 0  9999,2 53983  53.2153 148.6806 0001275  72.8469 287.2663 15.08856282 58296,6917.831,95.437,540.578,538.814,0.0
53983.0,STARLINK-5103,PAYLOAD,2023-10-22 19:23:51,15.08838172,0.0001251,53.2164,144.5189,94.9579,265.1556,6.1138e-05,6.85e-06,0.0,0 STARLINK-5103,1 53983U 22125V   23295.80823076  .00000685  00000-0  61138-4 0  9997,2 53983  53.2164 144.5189 0001251  94.9579 265.1556 15.08838172 58506,6917.886,95.438,540.616,538.886,0.0
53983.0,STARLINK-5103,PAYLOAD,2023-10-22 20:59:14,15.08833821,0.0001227,53.2159,144.2201,89.7141,270.3992,0.00018212,2.611e-05,0.0,0 STARLINK-5103,1 53983U 22125V   23295.87447137  .00002611  00000-0  18212-3 0  9999,2 53983  53.2159 144.2201 0001227  89.7141 270.3992 15.08833821 58443,6917.899,95.438,540.613,538.915,0.0
53983.0,STARLINK-5103,PAYLOAD,2023-10-23 20:50:01,15.08843353,0.0001242,53.2162,139.7593,88.4266,271.6869,0.00051082,7.852e-05,0.0,0 STARLINK-5103,1 53983U 22125V   23296.86807527  .00007852  00000-0  51082-3 0  9996,2 53983  53.2162 139.7593 0001242  88.4266 271.6869 15.08843353 58595,6917.87,95.437,540.594,538.876,0.0
53983.0,STARLINK-5103,PAYLOAD,2023-10-24 03:11:34,15.08847668,0.0001204,53.2153,138.5704,94.6071,265.5059,0.00048562,7.451e-05,0.0,0 STARLINK-5103,1 53983U 22125V   23297.13303355  .00007451  00000-0  48562-3 0  9991,2 53983  53.2153 138.5704 0001204  94.6071 265.5059 15.08847668 58706,6917.857,95.437,540.555,538.889,0.0
53983.0,STARLINK-5103,PAYLOAD,2023-10-24 04:46:57,15.08835996,0.0001233,53.2154,138.2729,98.4607,261.6525,0.00047196,7.23e-05,0.0,0 STARLINK-5103,1 53983U 22125V   23297.19927597  .00007230  00000-0  47196-3 0  9994,2 53983  53.2154 138.2729 0001233  98.4607 261.6525 15.08835996 58717,6917.893,95.438,540.611,538.905,0.0
53983.0,STARLINK-5103,PAYLOAD,2023-10-24 14:19:16,15.08846822,0.0001266,53.2152,136.4889,101.2375,258.8759,0.00030467,4.565e-05,0.0,0 STARLINK-5103,1 53983U 22125V   23297.59671301  .00004565  00000-0  30467-3 0  9998,2 53983  53.2152 136.4889 0001266 101.2375 258.8759 15.08846822 58709,6917.86,95.437,540.6,538.849,0.0
53983.0,STARLINK-5103,PAYLOAD,2023-10-25 14:10:03,15.08844436,0.0001103,53.215,132.0286,91.4461,268.6657,0.00010823,1.435e-05,0.0,0 STARLINK-5103,1 53983U 22125V   23298.59031326  .00001435  00000-0  10823-3 0  9993,2 53983  53.2150 132.0286 0001103  91.4461 268.6657 15.08844436 58925,6917.867,95.437,540.495,538.969,0.0
53983.0,STARLINK-5103,PAYLOAD,2023-10-26 12:25:26,15.08841437,0.000112,53.2148,127.8651,90.0105,270.1016,0.00012521,1.706e-05,0.0,0 STARLINK-5103,1 53983U 22125V   23299.51767341  .00001706  00000-0  12521-3 0  9997,2 53983  53.2148 127.8651 0001120  90.0105 270.1016 15.08841437 58991,6917.876,95.437,540.516,538.966,0.0
53983.0,STARLINK-5103,PAYLOAD,2023-10-26 18:46:59,15.08846982,0.000115,53.2152,126.6756,87.4575,272.6549,0.00019248,2.777e-05,0.0,0 STARLINK-5103,1 53983U 22125V   23299.78263083  .00002777  00000-0  19248-3 0  9992,2 53983  53.2152 126.6756 0001150  87.4575 272.6549 15.08846982 59105,6917.859,95.437,540.52,538.928,0.0
53983.0,STARLINK-5103,PAYLOAD,2023-10-26 20:22:22,15.08849331,0.0001154,53.2152,126.3782,87.4885,272.6239,0.00022422,3.283e-05,0.0,0 STARLINK-5103,1 53983U 22125V   23299.84886960  .00003283  00000-0  22422-3 0  9995,2 53983  53.2152 126.3782 0001154  87.4885 272.6239 15.08849331 59049,6917.852,95.437,540.515,538.919,0.0
53983.0,STARLINK-5103,PAYLOAD,2023-10-27 12:16:13,15.08844399,0.0001171,53.2152,123.4044,87.6727,272.4399,0.00010131,1.325e-05,0.0,0 STARLINK-5103,1 53983U 22125V   23300.51127031  .00001325  00000-0  10131-3 0  9998,2 53983  53.2152 123.4044 0001171  87.6727 272.4399 15.08844399 59149,6917.867,95.437,540.542,538.922,0.0
53983.0,STARLINK-5103,PAYLOAD,2023-10-27 21:48:32,15.08849761,0.0001193,53.2152,121.6202,87.0032,273.1096,0.00012808,1.752e-05,0.0,0 STARLINK-5103,1 53983U 22125V   23300.90870599  .00001752  00000-0  12808-3 0  9992,2 53983  53.2152 121.6202 0001193  87.0032 273.1096 15.08849761 59209,6917.851,95.437,540.541,538.89,0.0
53983.0,STARLINK-5103,PAYLOAD,2023-10-28 05:45:28,15.08842585,0.0001046,53.2151,120.1325,90.0777,270.0335,1.3428e-05,-7.4e-07,0.0,0 STARLINK-5103,1 53983U 22125V   23301.23990912 -.00000074  00000-0  13428-4 0  9998,2 53983  53.2151 120.1325 0001046  90.0777 270.0335 15.08842585 59327,6917.872,95.437,540.461,539.014,0.0
53983.0,STARLINK-5103,PAYLOAD,2023-10-28 12:07:01,15.08834915,0.0001275,53.2144,118.9446,81.7117,278.402,-2.8017e-06,-3.32e-06,0.0,0 STARLINK-5103,1 53983U 22125V   23301.50487437 -.00000332  00000-0 -28017-5 0  9990,2 53983  53.2144 118.9446 0001275  81.7117 278.4020 15.08834915 59294,6917.896,95.438,540.643,538.879,0.0
